[
  {
    "OBJECT_NAME": "STARLINK-34130",
    "OBJECT_ID": "25144N",
    "EPOCH": "2025-11-11T03:39:49.920768",
    "MEAN_MOTION": 15.30239621,
    "ECCENTRICITY": 6.12e-05,
    "INCLINATION": 53.1629,
    "RA_OF_ASC_NODE": 11.6102,
    "ARG_OF_PERICENTER": 48.914,
    "MEAN_ANOMALY": 311.1914,
    "EPHEMERIS_TYPE": 0,
    "CLASSIFICATION_TYPE": "U",
    "NORAD_CAT_ID": 64736,
    "ELEMENT_SET_NO": 999,
    "REV_AT_EPOCH": 2156,
    "BSTAR": 0.0012356000000000001,
    "MEAN_MOTION_DOT": 0.0003646,
    "MEAN_MOTION_DDOT": 0.0,
    "TLE_LINE1": "1 64736U 25144N   25315.15266112  .00036460  00000+0  12356-2 0  9999",
    "TLE_LINE2": "2 64736  53.1629  11.6102 0000612  48.9140 311.1914 15.30239621 21566",
    "COMMENT": "Grouped by shell and plane from TLE"
  },
  {
    "OBJECT_NAME": "STARLINK-34619",
    "OBJECT_ID": "25144P",
    "EPOCH": "2025-11-11T07:32:00.618720",
    "MEAN_MOTION": 15.30183384,
    "ECCENTRICITY": 0.0001241,
    "INCLINATION": 53.1598,
    "RA_OF_ASC_NODE": 11.1926,
    "ARG_OF_PERICENTER": 59.1413,
    "MEAN_ANOMALY": 300.9709,
    "EPHEMERIS_TYPE": 0,
    "CLASSIFICATION_TYPE": "U",
    "NORAD_CAT_ID": 64737,
    "ELEMENT_SET_NO": 999,
    "REV_AT_EPOCH": 2158,
    "BSTAR": 0.0022512,
    "MEAN_MOTION_DOT": 0.00066883,
    "MEAN_MOTION_DDOT": 0.0,
    "TLE_LINE1": "1 64737U 25144P   25315.31389605  .00066883  00000+0  22512-2 0  9998",
    "TLE_LINE2": "2 64737  53.1598  11.1926 0001241  59.1413 300.9709 15.30183384 21581",
    "COMMENT": "Grouped by shell and plane from TLE"
  },
  {
    "OBJECT_NAME": "STARLINK-34597",
    "OBJECT_ID": "25144Q",
    "EPOCH": "2025-11-11T04:37:25.036032",
    "MEAN_MOTION": 15.30205743,
    "ECCENTRICITY": 0.0001221,
    "INCLINATION": 53.1584,
    "RA_OF_ASC_NODE": 11.1516,
    "ARG_OF_PERICENTER": 84.5411,
    "MEAN_ANOMALY": 275.5729,
    "EPHEMERIS_TYPE": 0,
    "CLASSIFICATION_TYPE": "U",
    "NORAD_CAT_ID": 64738,
    "ELEMENT_SET_NO": 999,
    "REV_AT_EPOCH": 2155,
    "BSTAR": 0.0011498,
    "MEAN_MOTION_DOT": 0.00033855,
    "MEAN_MOTION_DDOT": 0.0,
    "TLE_LINE1": "1 64738U 25144Q   25315.19265088  .00033855  00000+0  11498-2 0  9997",
    "TLE_LINE2": "2 64738  53.1584  11.1516 0001221  84.5411 275.5729 15.30205743 21550",
    "COMMENT": "Grouped by shell and plane from TLE"
  },
  {
    "OBJECT_NAME": "STARLINK-34471",
    "OBJECT_ID": "25144R",
    "EPOCH": "2025-11-11T03:59:35.041920",
    "MEAN_MOTION": 15.30229647,
    "ECCENTRICITY": 9.72e-05,
    "INCLINATION": 53.1616,
    "RA_OF_ASC_NODE": 11.6917,
    "ARG_OF_PERICENTER": 102.71,
    "MEAN_ANOMALY": 257.4009,
    "EPHEMERIS_TYPE": 0,
    "CLASSIFICATION_TYPE": "U",
    "NORAD_CAT_ID": 64739,
    "ELEMENT_SET_NO": 999,
    "REV_AT_EPOCH": 2150,
    "BSTAR": 0.0011015999999999999,
    "MEAN_MOTION_DOT": 0.00032439,
    "MEAN_MOTION_DDOT": 0.0,
    "TLE_LINE1": "1 64739U 25144R   25315.16637780  .00032439  00000+0  11016-2 0  9990",
    "TLE_LINE2": "2 64739  53.1616  11.6917 0000972 102.7100 257.4009 15.30229647 21501",
    "COMMENT": "Grouped by shell and plane from TLE"
  },
  {
    "OBJECT_NAME": "STARLINK-34205",
    "OBJECT_ID": "25144T",
    "EPOCH": "2025-11-11T03:45:54.722304",
    "MEAN_MOTION": 15.30265691,
    "ECCENTRICITY": 0.0001196,
    "INCLINATION": 53.162,
    "RA_OF_ASC_NODE": 11.6367,
    "ARG_OF_PERICENTER": 32.0683,
    "MEAN_ANOMALY": 328.039,
    "EPHEMERIS_TYPE": 0,
    "CLASSIFICATION_TYPE": "U",
    "NORAD_CAT_ID": 64741,
    "ELEMENT_SET_NO": 999,
    "REV_AT_EPOCH": 2156,
    "BSTAR": 0.0016347,
    "MEAN_MOTION_DOT": 0.00048471,
    "MEAN_MOTION_DDOT": 0.0,
    "TLE_LINE1": "1 64741U 25144T   25315.15688336  .00048471  00000+0  16347-2 0  9990",
    "TLE_LINE2": "2 64741  53.1620  11.6367 0001196  32.0683 328.0390 15.30265691 21561",
    "COMMENT": "Grouped by shell and plane from TLE"
  },
  {
    "OBJECT_NAME": "STARLINK-34607",
    "OBJECT_ID": "25144U",
    "EPOCH": "2025-11-11T07:16:48.435168",
    "MEAN_MOTION": 15.30194895,
    "ECCENTRICITY": 0.0001102,
    "INCLINATION": 53.1598,
    "RA_OF_ASC_NODE": 11.1261,
    "ARG_OF_PERICENTER": 60.719,
    "MEAN_ANOMALY": 299.3921,
    "EPHEMERIS_TYPE": 0,
    "CLASSIFICATION_TYPE": "U",
    "NORAD_CAT_ID": 64742,
    "ELEMENT_SET_NO": 999,
    "REV_AT_EPOCH": 2156,
    "BSTAR": 0.00039136,
    "MEAN_MOTION_DOT": 0.00011248,
    "MEAN_MOTION_DDOT": 0.0,
    "TLE_LINE1": "1 64742U 25144U   25315.30333837  .00011248  00000+0  39136-3 0  9995",
    "TLE_LINE2": "2 64742  53.1598  11.1261 0001102  60.7190 299.3921 15.30194895 21569",
    "COMMENT": "Grouped by shell and plane from TLE"
  },
  {
    "OBJECT_NAME": "STARLINK-34236",
    "OBJECT_ID": "25144V",
    "EPOCH": "2025-11-11T03:44:23.712864",
    "MEAN_MOTION": 15.30236414,
    "ECCENTRICITY": 0.0001428,
    "INCLINATION": 53.1609,
    "RA_OF_ASC_NODE": 11.6278,
    "ARG_OF_PERICENTER": 86.6536,
    "MEAN_ANOMALY": 273.4628,
    "EPHEMERIS_TYPE": 0,
    "CLASSIFICATION_TYPE": "U",
    "NORAD_CAT_ID": 64743,
    "ELEMENT_SET_NO": 999,
    "REV_AT_EPOCH": 2156,
    "BSTAR": 0.0016947000000000002,
    "MEAN_MOTION_DOT": 0.00050229,
    "MEAN_MOTION_DDOT": 0.0,
    "TLE_LINE1": "1 64743U 25144V   25315.15583001  .00050229  00000+0  16947-2 0  9995",
    "TLE_LINE2": "2 64743  53.1609  11.6278 0001428  86.6536 273.4628 15.30236414 21569",
    "COMMENT": "Grouped by shell and plane from TLE"
  },
  {
    "OBJECT_NAME": "STARLINK-34185",
    "OBJECT_ID": "25144W",
    "EPOCH": "2025-11-11T04:45:00.650016",
    "MEAN_MOTION": 15.30231313,
    "ECCENTRICITY": 0.0001607,
    "INCLINATION": 53.1579,
    "RA_OF_ASC_NODE": 11.1771,
    "ARG_OF_PERICENTER": 98.5057,
    "MEAN_ANOMALY": 261.6126,
    "EPHEMERIS_TYPE": 0,
    "CLASSIFICATION_TYPE": "U",
    "NORAD_CAT_ID": 64744,
    "ELEMENT_SET_NO": 999,
    "REV_AT_EPOCH": 2157,
    "BSTAR": 0.0011724,
    "MEAN_MOTION_DOT": 0.00034561,
    "MEAN_MOTION_DDOT": 0.0,
    "TLE_LINE1": "1 64744U 25144W   25315.19792419  .00034561  00000+0  11724-2 0  9994",
    "TLE_LINE2": "2 64744  53.1579  11.1771 0001607  98.5057 261.6126 15.30231313 21574",
    "COMMENT": "Grouped by shell and plane from TLE"
  },
  {
    "OBJECT_NAME": "STARLINK-34581",
    "OBJECT_ID": "25144X",
    "EPOCH": "2025-11-11T04:20:51.491328",
    "MEAN_MOTION": 15.30236521,
    "ECCENTRICITY": 0.0001643,
    "INCLINATION": 53.1599,
    "RA_OF_ASC_NODE": 11.7848,
    "ARG_OF_PERICENTER": 73.2215,
    "MEAN_ANOMALY": 286.8966,
    "EPHEMERIS_TYPE": 0,
    "CLASSIFICATION_TYPE": "U",
    "NORAD_CAT_ID": 64745,
    "ELEMENT_SET_NO": 999,
    "REV_AT_EPOCH": 2156,
    "BSTAR": 0.00096917,
    "MEAN_MOTION_DOT": 0.00028488,
    "MEAN_MOTION_DDOT": 0.0,
    "TLE_LINE1": "1 64745U 25144X   25315.18115152  .00028488  00000+0  96917-3 0  9996",
    "TLE_LINE2": "2 64745  53.1599  11.7848 0001643  73.2215 286.8966 15.30236521 21560",
    "COMMENT": "Grouped by shell and plane from TLE"
  },
  {
    "OBJECT_NAME": "STARLINK-34536",
    "OBJECT_ID": "25144AA",
    "EPOCH": "2025-11-11T03:53:30.344928",
    "MEAN_MOTION": 15.30228325,
    "ECCENTRICITY": 8.4e-05,
    "INCLINATION": 53.1608,
    "RA_OF_ASC_NODE": 11.6623,
    "ARG_OF_PERICENTER": 4.816,
    "MEAN_ANOMALY": 355.2849,
    "EPHEMERIS_TYPE": 0,
    "CLASSIFICATION_TYPE": "U",
    "NORAD_CAT_ID": 64748,
    "ELEMENT_SET_NO": 999,
    "REV_AT_EPOCH": 2156,
    "BSTAR": 0.0012288000000000002,
    "MEAN_MOTION_DOT": 0.00036243,
    "MEAN_MOTION_DDOT": 0.0,
    "TLE_LINE1": "1 64748U 25144AA  25315.16215677  .00036243  00000+0  12288-2 0  9996",
    "TLE_LINE2": "2 64748  53.1608  11.6623 0000840   4.8160 355.2849 15.30228325 21565",
    "COMMENT": "Grouped by shell and plane from TLE"
  },
  {
    "OBJECT_NAME": "STARLINK-34595",
    "OBJECT_ID": "25144AB",
    "EPOCH": "2025-11-11T03:55:01.769088",
    "MEAN_MOTION": 15.30225669,
    "ECCENTRICITY": 5.08e-05,
    "INCLINATION": 53.161,
    "RA_OF_ASC_NODE": 11.6699,
    "ARG_OF_PERICENTER": 51.8862,
    "MEAN_ANOMALY": 308.2184,
    "EPHEMERIS_TYPE": 0,
    "CLASSIFICATION_TYPE": "U",
    "NORAD_CAT_ID": 64749,
    "ELEMENT_SET_NO": 999,
    "REV_AT_EPOCH": 2156,
    "BSTAR": 0.0020811,
    "MEAN_MOTION_DOT": 0.00061842,
    "MEAN_MOTION_DDOT": 0.0,
    "TLE_LINE1": "1 64749U 25144AB  25315.16321492  .00061842  00000+0  20811-2 0  9994",
    "TLE_LINE2": "2 64749  53.1610  11.6699 0000508  51.8862 308.2184 15.30225669 21562",
    "COMMENT": "Grouped by shell and plane from TLE"
  },
  {
    "OBJECT_NAME": "STARLINK-34531",
    "OBJECT_ID": "25144AC",
    "EPOCH": "2025-11-11T03:30:42.857568",
    "MEAN_MOTION": 15.30236414,
    "ECCENTRICITY": 0.0001628,
    "INCLINATION": 53.1616,
    "RA_OF_ASC_NODE": 11.5704,
    "ARG_OF_PERICENTER": 111.1531,
    "MEAN_ANOMALY": 248.9644,
    "EPHEMERIS_TYPE": 0,
    "CLASSIFICATION_TYPE": "U",
    "NORAD_CAT_ID": 64750,
    "ELEMENT_SET_NO": 999,
    "REV_AT_EPOCH": 2156,
    "BSTAR": 0.0017537,
    "MEAN_MOTION_DOT": 0.00052003,
    "MEAN_MOTION_DDOT": 0.0,
    "TLE_LINE1": "1 64750U 25144AC  25315.14632937  .00052003  00000+0  17537-2 0  9993",
    "TLE_LINE2": "2 64750  53.1616  11.5704 0001628 111.1531 248.9644 15.30236414 21564",
    "COMMENT": "Grouped by shell and plane from TLE"
  },
  {
    "OBJECT_NAME": "STARLINK-35267",
    "OBJECT_ID": "25207A",
    "EPOCH": "2025-11-11T03:34:21.657792",
    "MEAN_MOTION": 15.39371804,
    "ECCENTRICITY": 0.0001813,
    "INCLINATION": 97.6027,
    "RA_OF_ASC_NODE": 19.6249,
    "ARG_OF_PERICENTER": 110.0231,
    "MEAN_ANOMALY": 250.1209,
    "EPHEMERIS_TYPE": 0,
    "CLASSIFICATION_TYPE": "U",
    "NORAD_CAT_ID": 65592,
    "ELEMENT_SET_NO": 999,
    "REV_AT_EPOCH": 1027,
    "BSTAR": 0.0011543,
    "MEAN_MOTION_DOT": 0.00045244,
    "MEAN_MOTION_DDOT": 0.0,
    "TLE_LINE1": "1 65592U 25207A   25315.14886178  .00045244  00000+0  11543-2 0  9996",
    "TLE_LINE2": "2 65592  97.6027  19.6249 0001813 110.0231 250.1209 15.39371804 10272",
    "COMMENT": "Grouped by shell and plane from TLE"
  }
]